NORAD_CAT_ID,OBJECT_NAME,OBJECT_TYPE,EPOCH,MEAN_MOTION,ECCENTRICITY,INCLINATION,RA_OF_ASC_NODE,ARG_OF_PERICENTER,MEAN_ANOMALY,BSTAR,MEAN_MOTION_DOT,MEAN_MOTION_DDOT,TLE_LINE0,TLE_LINE1,TLE_LINE2,SEMIMAJOR_AXIS,PERIOD,APOGEE,PERIGEE,DECAYED
54190.0,STARLINK-5281,PAYLOAD,2023-02-16 00:05:53,15.08860554,0.0001148,53.2183,331.7233,100.9881,259.124,0.00016862,2.398e-05,0.0,0 STARLINK-5281,1 54190U 22141AK  23047.00409393  .00002398  00000-0  16862-3 0  9991,2 54190  53.2183 331.7233 0001148 100.9881 259.1240 15.08860554 17492,6917.818,95.436,540.477,538.888,0.0
54190.0,STARLINK-5281,PAYLOAD,2023-02-16 22:21:19,15.0883019,0.0003037,53.2182,327.5611,157.3602,202.7525,-4.0666e-05,-9.36e-06,0.0,0 STARLINK-5281,1 54190U 22141AK  23047.93147625 -.00000936  00000-0 -40666-4 0  9998,2 54190  53.2182 327.5611 0003037 157.3602 202.7525 15.08830190 17404,6917.91,95.438,541.876,537.674,0.0
54190.0,STARLINK-5281,PAYLOAD,2023-02-17 03:07:28,15.08840704,0.0001003,53.2186,326.6712,96.8099,263.3007,-4.5483e-05,-1.012e-05,0.0,0 STARLINK-5281,1 54190U 22141AK  23048.13019521 -.00001012  00000-0 -45483-4 0  9992,2 54190  53.2186 326.6712 0001003  96.8099 263.3007 15.08840704 17666,6917.878,95.438,540.437,539.049,0.0
54190.0,STARLINK-5281,PAYLOAD,2023-02-17 11:04:25,15.08831982,0.0001173,53.2188,325.1848,82.0403,278.0722,-0.00010013,-1.881e-05,0.0,0 STARLINK-5281,1 54190U 22141AK  23048.46140444 -.00001881  00000-0 -10013-3 0  9991,2 54190  53.2188 325.1848 0001173  82.0403 278.0722 15.08831982 17717,6917.905,95.438,540.581,538.958,0.0
54190.0,STARLINK-5281,PAYLOAD,2023-02-18 10:55:12,15.08829549,0.000174,53.2179,320.7244,144.3548,215.756,7.6117e-05,9.23e-06,0.0,0 STARLINK-5281,1 54190U 22141AK  23049.45500313  .00000923  00000-0  76117-4 0  9998,2 54190  53.2179 320.7244 0001740 144.3548 215.7560 15.08829549 17635,6917.912,95.438,540.981,538.574,0.0
54190.0,STARLINK-5281,PAYLOAD,2023-02-18 22:02:54,15.08813476,9.67e-05,53.2172,318.6427,127.6866,232.4214,0.00036924,5.589e-05,0.0,0 STARLINK-5281,1 54190U 22141AK  23049.91868333  .00005589  00000-0  36924-3 0  9992,2 54190  53.2172 318.6427 0000967 127.6866 232.4214 15.08813476 17931,6917.961,95.439,540.495,539.157,0.0
54190.0,STARLINK-5281,PAYLOAD,2023-02-19 10:45:58,15.08849722,0.0001143,53.218,316.2617,73.1312,286.9805,9.1929e-05,1.176e-05,0.0,0 STARLINK-5281,1 54190U 22141AK  23050.44859461  .00001176  00000-0  91929-4 0  9999,2 54190  53.2180 316.2617 0001143  73.1312 286.9805 15.08849722 18016,6917.851,95.437,540.506,538.925,0.0
54190.0,STARLINK-5281,PAYLOAD,2023-02-19 17:07:32,15.08828651,0.0001384,53.2177,315.0748,72.4278,287.6865,0.00011494,1.541e-05,0.0,0 STARLINK-5281,1 54190U 22141AK  23050.71356824  .00001541  00000-0  11494-3 0  9998,2 54190  53.2177 315.0748 0001384  72.4278 287.6865 15.08828651 18050,6917.915,95.438,540.738,538.823,0.0
54190.0,STARLINK-5281,PAYLOAD,2023-02-20 01:04:27,15.08848007,0.0001043,53.2176,313.5868,76.6441,283.4668,7.041e-05,8.33e-06,0.0,0 STARLINK-5281,1 54190U 22141AK  23051.04475868  .00000833  00000-0  70410-4 0  9992,2 54190  53.2176 313.5868 0001043  76.6441 283.4668 15.08848007 18103,6917.856,95.437,540.442,538.999,0.0
54190.0,STARLINK-5281,PAYLOAD,2023-02-20 10:36:46,15.08843848,9.92e-05,53.2176,311.8026,80.2823,279.8281,2.7586e-05,1.51e-06,0.0,0 STARLINK-5281,1 54190U 22141AK  23051.44220077  .00000151  00000-0  27586-4 0  9995,2 54190  53.2176 311.8026 0000992  80.2823 279.8281 15.08843848 17935,6917.869,95.437,540.42,539.047,0.0
54190.0,STARLINK-5281,PAYLOAD,2023-02-21 10:27:32,15.08857135,0.0001088,53.2167,307.3429,73.3718,286.7393,-5.3515e-05,-1.14e-05,0.0,0 STARLINK-5281,1 54190U 22141AK  23052.43579060 -.00001140  00000-0 -53515-4 0  9996,2 54190  53.2167 307.3429 0001088  73.3718 286.7393 15.08857135 18313,6917.828,95.436,540.446,538.94,0.0
54190.0,STARLINK-5281,PAYLOAD,2023-02-21 16:49:05,15.08840429,0.0001212,53.2164,306.153,84.3707,275.7424,2.0411e-05,3.7e-07,0.0,0 STARLINK-5281,1 54190U 22141AK  23052.70075748  .00000037  00000-0  20411-4 0  9991,2 54190  53.2164 306.1530 0001212  84.3707 275.7424 15.08840429 18354,6917.879,95.438,540.583,538.906,0.0
54190.0,STARLINK-5281,PAYLOAD,2023-02-21 21:35:14,15.08846729,0.0001368,53.216,305.2618,82.2097,277.905,2.6711e-05,1.37e-06,0.0,0 STARLINK-5281,1 54190U 22141AK  23052.89947322  .00000137  00000-0  26711-4 0  9997,2 54190  53.2160 305.2618 0001368  82.2097 277.9050 15.08846729 18154,6917.86,95.437,540.671,538.778,0.0
54190.0,STARLINK-5281,PAYLOAD,2023-02-22 02:21:23,15.08855849,0.0001299,53.2165,304.367,96.8651,263.2489,5.1967e-05,5.4e-06,0.0,0 STARLINK-5281,1 54190U 22141AK  23053.09818412  .00000540  00000-0  51967-4 0  9996,2 54190  53.2165 304.3670 0001299  96.8651 263.2489 15.08855849 18413,6917.832,95.437,540.596,538.798,0.0
54190.0,STARLINK-5281,PAYLOAD,2023-02-22 21:26:03,15.08824267,0.0001061,53.2163,300.8008,80.9446,279.1666,-0.00010675,-1.986e-05,0.0,0 STARLINK-5281,1 54190U 22141AK  23053.89309203 -.00001986  00000-0 -10675-3 0  9994,2 54190  53.2163 300.8008 0001061  80.9446 279.1666 15.08824267 18301,6917.928,95.439,540.527,539.059,0.0
54190.0,STARLINK-5281,PAYLOAD,2023-02-22 23:01:26,15.0882415,0.0001097,53.2165,300.5034,72.0105,288.1007,-0.00010339,-1.932e-05,0.0,0 STARLINK-5281,1 54190U 22141AK  23053.95933287 -.00001932  00000-0 -10339-3 0  9994,2 54190  53.2165 300.5034 0001097  72.0105 288.1007 15.08824150 18548,6917.929,95.439,540.553,539.035,0.0
54190.0,STARLINK-5281,PAYLOAD,2023-02-23 19:41:25,15.0884559,0.0001349,53.2166,296.6366,81.7685,278.346,3.8827e-05,3.3e-06,0.0,0 STARLINK-5281,1 54190U 22141AK  23054.82043630  .00000330  00000-0  38827-4 0  9997,2 54190  53.2166 296.6366 0001349  81.7685 278.3460 15.08845590 18446,6917.863,95.437,540.662,538.795,0.0
54190.0,STARLINK-5281,PAYLOAD,2023-02-23 22:52:11,15.08851467,0.0001241,53.2162,296.0424,78.4374,281.6758,9.9871e-05,1.302e-05,0.0,0 STARLINK-5281,1 54190U 22141AK  23054.95290962  .00001302  00000-0  99871-4 0  9999,2 54190  53.2162 296.0424 0001241  78.4374 281.6758 15.08851467 18694,6917.845,95.437,540.569,538.852,0.0
54190.0,STARLINK-5281,PAYLOAD,2023-02-24 11:35:17,15.08826966,0.0001147,53.2161,293.6637,72.402,287.7097,0.00010201,1.335e-05,0.0,0 STARLINK-5281,1 54190U 22141AK  23055.48284428  .00001335  00000-0  10201-3 0  9993,2 54190  53.2161 293.6637 0001147  72.4020 287.7097 15.08826966 18777,6917.92,95.438,540.579,538.992,0.0
54190.0,STARLINK-5281,PAYLOAD,2023-02-24 19:32:14,15.08826539,0.0001142,53.2164,292.1767,72.9884,287.1233,-8.6074e-08,-2.89e-06,0.0,0 STARLINK-5281,1 54190U 22141AK  23055.81405140 -.00000289  00000-0 -86074-7 0  9990,2 54190  53.2164 292.1767 0001142  72.9884 287.1233 15.08826539 18598,6917.922,95.438,540.577,538.997,0.0
54190.0,STARLINK-5281,PAYLOAD,2023-02-24 22:43:00,15.08829642,0.0001161,53.2163,291.5819,81.0911,279.0212,5.1765e-05,5.36e-06,0.0,0 STARLINK-5281,1 54190U 22141AK  23055.94652824  .00000536  00000-0  51765-4 0  9996,2 54190  53.2163 291.5819 0001161  81.0911 279.0212 15.08829642 18619,6917.912,95.438,540.58,538.974,0.0
54190.0,STARLINK-5281,PAYLOAD,2023-02-25 14:36:51,15.08839726,0.0001354,53.2162,288.6085,91.7672,268.3475,-0.00010211,-1.913e-05,0.0,0 STARLINK-5281,1 54190U 22141AK  23056.60893065 -.00001913  00000-0 -10211-3 0  9996,2 54190  53.2162 288.6085 0001354  91.7672 268.3475 15.08839726 18948,6917.881,95.438,540.683,538.81,0.0
54190.0,STARLINK-5281,PAYLOAD,2023-02-25 22:33:46,15.08846114,0.0001041,53.2162,287.1211,84.6154,275.4957,-5.4452e-05,-1.154e-05,0.0,0 STARLINK-5281,1 54190U 22141AK  23056.94012430 -.00001154  00000-0 -54452-4 0  9995,2 54190  53.2162 287.1211 0001041  84.6154 275.4957 15.08846114 18765,6917.862,95.437,540.447,539.007,0.0
54190.0,STARLINK-5281,PAYLOAD,2023-02-26 01:44:32,15.08849146,0.0001144,53.2162,286.5253,96.7646,263.3476,-8.7976e-06,-4.28e-06,0.0,0 STARLINK-5281,1 54190U 22141AK  23057.07259977 -.00000428  00000-0 -87976-5 0  9990,2 54190  53.2162 286.5253 0001144  96.7646 263.3476 15.08849146 19017,6917.852,95.437,540.509,538.926,0.0
54190.0,STARLINK-5281,PAYLOAD,2023-02-26 23:59:56,15.08854312,0.0001201,53.2166,282.3621,84.1788,275.9341,2.665e-05,1.36e-06,0.0,0 STARLINK-5281,1 54190U 22141AK  23057.99995401  .00000136  00000-0  26650-4 0  9995,2 54190  53.2166 282.3621 0001201  84.1788 275.9341 15.08854312 18926,6917.837,95.437,540.532,538.871,0.0
54190.0,STARLINK-5281,PAYLOAD,2023-02-27 14:18:24,15.08844626,0.0001241,53.217,279.6869,99.0014,261.1119,2.8465e-05,1.65e-06,0.0,0 STARLINK-5281,1 54190U 22141AK  23058.59611990  .00000165  00000-0  28465-4 0  9998,2 54190  53.2170 279.6869 0001241  99.0014 261.1119 15.08844626 19248,6917.866,95.437,540.59,538.873,0.0
54190.0,STARLINK-5281,PAYLOAD,2023-02-27 20:39:56,15.08849591,0.0001252,53.2168,278.497,103.6198,256.4934,6.2799e-05,7.12e-06,0.0,0 STARLINK-5281,1 54190U 22141AK  23058.86107386  .00000712  00000-0  62799-4 0  9993,2 54190  53.2168 278.4970 0001252 103.6198 256.4934 15.08849591 19059,6917.851,95.437,540.582,538.85,0.0
54190.0,STARLINK-5281,PAYLOAD,2023-02-28 14:09:13,15.08826199,0.0001072,53.2179,275.2243,102.3529,257.7583,-0.00012775,-2.32e-05,0.0,0 STARLINK-5281,1 54190U 22141AK  23059.58973616 -.00002320  00000-0 -12775-3 0  9997,2 54190  53.2179 275.2243 0001072 102.3529 257.7583 15.08826199 19393,6917.923,95.438,540.529,539.046,0.0
54190.0,STARLINK-5281,PAYLOAD,2023-02-28 20:30:46,15.08823086,0.0001151,53.2165,274.0362,89.2393,270.8731,-0.00018747,-3.269e-05,0.0,0 STARLINK-5281,1 54190U 22141AK  23059.85470260 -.00003269  00000-0 -18747-3 0  9992,2 54190  53.2165 274.0362 0001151  89.2393 270.8731 15.08823086 19200,6917.932,95.439,540.593,539.001,0.0
54190.0,STARLINK-5281,PAYLOAD,2023-03-01 20:21:32,15.08837934,0.0001132,53.2161,269.5752,85.1412,274.9709,-5.1572e-05,-1.108e-05,0.0,0 STARLINK-5281,1 54190U 22141AK  23060.84829364 -.00001108  00000-0 -51572-4 0  9990,2 54190  53.2161 269.5752 0001132  85.1412 274.9709 15.08837934 19582,6917.887,95.438,540.535,538.969,0.0
